NORAD_CAT_ID,OBJECT_NAME,OBJECT_TYPE,EPOCH,MEAN_MOTION,ECCENTRICITY,INCLINATION,RA_OF_ASC_NODE,ARG_OF_PERICENTER,MEAN_ANOMALY,BSTAR,MEAN_MOTION_DOT,MEAN_MOTION_DDOT,TLE_LINE0,TLE_LINE1,TLE_LINE2,SEMIMAJOR_AXIS,PERIOD,APOGEE,PERIGEE,DECAYED
49143.0,STARLINK-3109,PAYLOAD,2022-07-09 08:25:48,14.96709594,0.0003083,69.9988,51.0897,257.8305,102.2508,-6.1116e-06,-1.62e-06,0.0,0 STARLINK-3109,1 49143U 21082P   22190.35125266 -.00000162  00000-0 -61116-5 0  9999,2 49143  69.9988  51.0897 0003083 257.8305 102.2508 14.96709594 46974,6955.208000000001,96.211,579.2180000000002,574.929,0.0
49143.0,STARLINK-3109,PAYLOAD,2022-07-09 14:50:46,14.96704178,0.0002885,69.9992,50.4175,253.0574,107.0268,-0.00010905,-1.339e-05,0.0,0 STARLINK-3109,1 49143U 21082P   22190.61858824 -.00001339  00000-0 -10905-3 0  9996,2 49143  69.9992  50.4175 0002885 253.0574 107.0268 14.96704178 45895,6955.225,96.211,579.097,575.0840000000002,0.0
49143.0,STARLINK-3109,PAYLOAD,2022-07-09 16:27:00,14.96704081,0.0002964,69.9991,50.2494,256.5435,103.5393,-0.00014221,-1.718e-05,0.0,0 STARLINK-3109,1 49143U 21082P   22190.68542167 -.00001718  00000-0 -14221-3 0  9999,2 49143  69.9991  50.2494 0002964 256.5435 103.5393 14.96704081 47028,6955.225,96.211,579.1519999999998,575.029,0.0
49143.0,STARLINK-3109,PAYLOAD,2022-07-10 08:29:23,14.96714118,0.0002928,69.9992,48.5688,262.3717,97.7109,-0.00033564,-3.931e-05,0.0,0 STARLINK-3109,1 49143U 21082P   22191.35374490 -.00003931  00000-0 -33564-3 0  9996,2 49143  69.9992  48.5688 0002928 262.3717  97.7109 14.96714118 47124,6955.194,96.211,579.096,575.023,0.0
49143.0,STARLINK-3109,PAYLOAD,2022-07-10 16:30:35,14.96704361,0.0003056,69.999,47.7283,257.3454,102.7363,-0.00010993,-1.349e-05,0.0,0 STARLINK-3109,1 49143U 21082P   22191.68790833 -.00001349  00000-0 -10993-3 0  9997,2 49143  69.9990  47.7283 0003056 257.3454 102.7363 14.96704361 46058,6955.225,96.211,579.215,574.964,0.0
49143.0,STARLINK-3109,PAYLOAD,2022-07-10 21:19:18,14.96700392,0.0003032,69.999,47.2239,257.3559,102.7261,-2.7235e-05,-4.03e-06,0.0,0 STARLINK-3109,1 49143U 21082P   22191.88840628 -.00000403  00000-0 -27235-4 0  9995,2 49143  69.9990  47.2239 0003032 257.3559 102.7261 14.96700392 47209,6955.236999999999,96.212,579.211,574.993,0.0
49143.0,STARLINK-3109,PAYLOAD,2022-07-11 13:21:41,14.96697402,0.0003125,69.9988,45.5431,257.7318,102.349,0.00012649,1.356e-05,0.0,0 STARLINK-3109,1 49143U 21082P   22192.55673056  .00001356  00000-0  12649-3 0  9997,2 49143  69.9988  45.5431 0003125 257.7318 102.3490 14.96697402 47309,6955.246,96.212,579.285,574.938,0.0
49143.0,STARLINK-3109,PAYLOAD,2022-07-11 19:46:38,14.96699789,0.000311,69.9989,44.8707,257.7454,102.3356,0.00014318,1.547e-05,0.0,0 STARLINK-3109,1 49143U 21082P   22192.82405978  .00001547  00000-0  14318-3 0  9990,2 49143  69.9989  44.8707 0003110 257.7454 102.3356 14.96699789 46224,6955.239000000001,96.212,579.2669999999998,574.941,0.0
49143.0,STARLINK-3109,PAYLOAD,2022-07-11 21:22:53,14.96700263,0.0003111,69.9989,44.7027,257.7128,102.3682,0.00013802,1.488e-05,0.0,0 STARLINK-3109,1 49143U 21082P   22192.89089234  .00001488  00000-0  13802-3 0  9991,2 49143  69.9989  44.7027 0003111 257.7128 102.3682 14.96700263 47354,6955.236999999999,96.212,579.266,574.939,0.0
49143.0,STARLINK-3109,PAYLOAD,2022-07-12 13:25:15,14.96708928,0.0003128,69.9989,43.0216,257.4257,102.6551,0.00017321,1.891e-05,0.0,0 STARLINK-3109,1 49143U 21082P   22193.55921132  .00001891  00000-0  17321-3 0  9995,2 49143  69.9989  43.0216 0003128 257.4257 102.6551 14.96708928 46335,6955.21,96.211,579.251,574.9,0.0
49143.0,STARLINK-3109,PAYLOAD,2022-07-12 19:50:12,14.96713437,0.0003098,69.9991,42.3494,257.3879,102.6933,0.00018882,2.07e-05,0.0,0 STARLINK-3109,1 49143U 21082P   22193.82653729  .00002070  00000-0  18882-3 0  9992,2 49143  69.9991  42.3494 0003098 257.3879 102.6933 14.96713437 47496,6955.196,96.211,579.216,574.9069999999998,0.0
49143.0,STARLINK-3109,PAYLOAD,2022-07-13 13:28:49,14.96721658,0.0003135,69.999,40.5005,256.1884,103.8925,0.00020133,2.214e-05,0.0,0 STARLINK-3109,1 49143U 21082P   22194.56168329  .00002214  00000-0  20133-3 0  9993,2 49143  69.9990  40.5005 0003135 256.1884 103.8925 14.96721658 46484,6955.170999999999,96.21,579.216,574.856,0.0
49143.0,STARLINK-3109,PAYLOAD,2022-07-13 19:53:46,14.96725566,0.0003115,69.999,39.828,255.8666,104.2146,0.00019734,2.168e-05,0.0,0 STARLINK-3109,1 49143U 21082P   22194.82900795  .00002168  00000-0  19734-3 0  9996,2 49143  69.9990  39.8280 0003115 255.8666 104.2146 14.96725566 47643,6955.159000000002,96.21,579.19,574.857,0.0
49143.0,STARLINK-3109,PAYLOAD,2022-07-14 07:07:25,14.96730304,0.0003078999999999,69.9991,38.6512,255.5735,104.5081,0.00020637,2.272e-05,0.0,0 STARLINK-3109,1 49143U 21082P   22195.29682527  .00002272  00000-0  20637-3 0  9998,2 49143  69.9991  38.6512 0003079 255.5735 104.5081 14.96730304 46592,6955.144,96.21,579.151,574.868,0.0
49143.0,STARLINK-3109,PAYLOAD,2022-07-14 19:57:20,14.96721742,0.0003005,69.9994,37.3063,253.3636,106.7193,3.3501e-05,2.92e-06,0.0,0 STARLINK-3109,1 49143U 21082P   22195.83148694  .00000292  00000-0  33501-4 0  9995,2 49143  69.9994  37.3063 0003005 253.3636 106.7193 14.96721742 46670,6955.170999999999,96.21,579.126,574.946,0.0
49143.0,STARLINK-3109,PAYLOAD,2022-07-15 11:59:42,14.96727992,0.0003118,69.9993,35.6252,255.4107,104.6705,1.8066e-05,1.15e-06,0.0,0 STARLINK-3109,1 49143U 21082P   22196.49979867  .00000115  00000-0  18066-4 0  9995,2 49143  69.9993  35.6252 0003118 255.4107 104.6705 14.96727992 47895,6955.151,96.21,579.185,574.8480000000002,0.0
49143.0,STARLINK-3109,PAYLOAD,2022-07-15 20:00:53,14.9673036,0.0003126,69.9994,34.7848,255.4922,104.5889,1.1974e-05,4.5e-07,0.0,0 STARLINK-3109,1 49143U 21082P   22196.83395434  .00000045  00000-0  11974-4 0  9998,2 49143  69.9994  34.7848 0003126 255.4922 104.5889 14.96730360 46828,6955.144,96.21,579.183,574.835,0.0
49143.0,STARLINK-3109,PAYLOAD,2022-07-16 00:49:36,14.96731572,0.0003131,69.9993,34.2805,255.6733,104.4078,2.601300000000001e-05,2.06e-06,0.0,0 STARLINK-3109,1 49143U 21082P   22197.03444731  .00000206  00000-0  26013-4 0  9995,2 49143  69.9993  34.2805 0003131 255.6733 104.4078 14.96731572 47975,6955.14,96.21,579.183,574.828,0.0
49143.0,STARLINK-3109,PAYLOAD,2022-07-16 20:04:27,14.96717201,0.0003205,69.9993,32.2636,255.9588,104.1214,1.5796e-05,8.9e-07,0.0,0 STARLINK-3109,1 49143U 21082P   22197.83643443  .00000089  00000-0  15796-4 0  9999,2 49143  69.9993  32.2636 0003205 255.9588 104.1214 14.96717201 46979,6955.185,96.211,579.279,574.821,0.0
49143.0,STARLINK-3109,PAYLOAD,2022-07-16 21:40:42,14.96717189,0.0003203,69.9993,32.0955,255.9793,104.1009,1.4153e-05,7e-07,0.0,0 STARLINK-3109,1 49143U 21082P   22197.90326631  .00000070  00000-0  14153-4 0  9990,2 49143  69.9993  32.0955 0003203 255.9793 104.1009 14.96717189 48101,6955.185,96.211,579.278,574.822,0.0
49143.0,STARLINK-3109,PAYLOAD,2022-07-17 05:41:53,14.96721908,0.0003227,69.9992,31.255,255.9085,104.1715,3.0118e-05,2.53e-06,0.0,0 STARLINK-3109,1 49143U 21082P   22198.23742188  .00000253  00000-0  30118-4 0  9998,2 49143  69.9992  31.2550 0003227 255.9085 104.1715 14.96721908 48155,6955.17,96.21,579.28,574.7909999999998,0.0
49143.0,STARLINK-3109,PAYLOAD,2022-07-17 18:31:47,14.967248,0.0003256999999999,69.9992,29.9103,255.3307,104.749,3.8119e-05,3.45e-06,0.0,0 STARLINK-3109,1 49143U 21082P   22198.77207275  .00000345  00000-0  38119-4 0  9991,2 49143  69.9992  29.9103 0003257 255.3307 104.7490 14.96724800 47112,6955.161,96.21,579.2919999999998,574.761,0.0
49143.0,STARLINK-3109,PAYLOAD,2022-07-17 23:20:30,14.96718906,0.000333,69.9989,29.4052,258.4574,101.621,-5.9762e-05,-7.76e-06,0.0,0 STARLINK-3109,1 49143U 21082P   22198.97257402 -.00000776  00000-0 -59762-4 0  9997,2 49143  69.9989  29.4052 0003330 258.4574 101.6210 14.96718906 47147,6955.18,96.21,579.361,574.7280000000002,0.0
49143.0,STARLINK-3109,PAYLOAD,2022-07-18 05:45:27,14.96714912,0.0003326,69.9989,28.7327,258.0252,102.0533,-0.00011541,-1.412e-05,0.0,0 STARLINK-3109,1 49143U 21082P   22199.23990549 -.00001412  00000-0 -11541-3 0  9993,2 49143  69.9989  28.7327 0003326 258.0252 102.0533 14.96714912 48303,6955.191999999999,96.211,579.37,574.744,0.0
49143.0,STARLINK-3109,PAYLOAD,2022-07-18 20:11:36,14.96709627,0.0003334,69.9989,27.2202,256.4112,103.6675,-2.0227e-05,-3.23e-06,0.0,0 STARLINK-3109,1 49143U 21082P   22199.84139543 -.00000323  00000-0 -20227-4 0  9991,2 49143  69.9989  27.2202 0003334 256.4112 103.6675 14.96709627 47271,6955.208000000001,96.211,579.3919999999998,574.754,0.0
49143.0,STARLINK-3109,PAYLOAD,2022-07-19 05:49:03,14.96701048,0.0003299,69.9991,26.2114,254.8494,105.2299,-0.00014837,-1.789e-05,0.0,0 STARLINK-3109,1 49143U 21082P   22200.24239855 -.00001789  00000-0 -14837-3 0  9991,2 49143  69.9991  26.2114 0003299 254.8494 105.2299 14.96701048 47336,6955.235,96.212,579.394,574.805,0.0
49143.0,STARLINK-3109,PAYLOAD,2022-07-19 12:14:00,14.96701431,0.0003331,69.9989,25.5389,254.6921,105.3869,-0.00012901,-1.567e-05,0.0,0 STARLINK-3109,1 49143U 21082P   22200.50972793 -.00001567  00000-0 -12901-3 0  9999,2 49143  69.9989  25.5389 0003331 254.6921 105.3869 14.96701431 48497,6955.234,96.212,579.415,574.7819999999998,0.0
49143.0,STARLINK-3109,PAYLOAD,2022-07-19 21:51:26,14.96706807,0.000327,69.9991,24.5308,252.6086,107.4714,-9.943e-05,-1.229e-05,0.0,0 STARLINK-3109,1 49143U 21082P   22200.91071921 -.00001229  00000-0 -99430-4 0  9995,2 49143  69.9991  24.5308 0003270 252.6086 107.4714 14.96706807 48553,6955.217,96.211,579.356,574.808,0.0
49143.0,STARLINK-3109,PAYLOAD,2022-07-20 13:53:49,14.96713879,0.0002915,69.9991,22.8501,253.9554,106.1283,-9.5122e-05,-1.18e-05,0.0,0 STARLINK-3109,1 49143U 21082P   22201.57904110 -.00001180  00000-0 -95122-4 0  9993,2 49143  69.9991  22.8501 0002915 253.9554 106.1283 14.96713879 48653,6955.195,96.211,579.0880000000002,575.033,0.0
